COSMOS 2058             
1 20465U 90010A   26165.48830974  .00003801  00000+0  21964-3 0  9996
2 20465  82.4670 312.0161 0009535  10.5226 349.6202 15.11996158956864
SL-14 R/B               
1 20466U 90010B   26165.53758765  .00000326  00000+0  36539-4 0  9994
2 20466  82.5016 176.4333 0019319 345.2648  14.8001 14.83644689942848
SL-14 R/B               
1 20511U 90018B   26165.37857191  .00000340  00000+0  39562-4 0  9993
2 20511  82.5209 132.7328 0017286 130.3183 229.9545 14.82214463936904
HST                     
1 20580U 90037B   26165.14417512  .00006344  00000+0  19999-3 0  9995
2 20580  28.4715 101.3706 0001912 110.8714 249.2086 15.30716351788104
SL-16 R/B               
1 20625U 90046B   26165.54466901  .00000211  00000+0  13326-3 0  9990
2 20625  70.9996  94.4979 0013528 165.7174 194.4334 14.15025540862099
COSMOS 2084             
1 20663U 90055A   26164.94095426  .00002050  00000+0  15328-3 0  9992
2 20663  62.7910   7.1711 0005510 273.5813  86.4657 15.06104058950810
SL-6 R/B(2)             
1 20666U 90055D   26165.58928449  .00001420  00000+0  11528-3 0  9994
2 20666  62.7824 284.2168 0040225   4.7912 355.3564 15.03995426952762
SL-8 R/B                
1 20775U 90078B   26165.51296069  .00017850  00000+0  50253-3 0  9991
2 20775  82.9001 164.0607 0351581  47.4786 315.5560 14.92215711823726
SL-8 R/B                
1 21088U 91006B   26165.54376556  .00000035  00000+0  19380-4 0  9998
2 21088  82.9424  98.0001 0023577 121.5798  52.1573 13.77505643777404
OKEAN-3                 
1 21397U 91039A   26165.47970769  .00002366  00000+0  16313-3 0  9996
2 21397  82.5158 243.0063 0014311   8.1840 351.9618 15.05312042879596
COSMOS 2151             
1 21422U 91042A   26165.59222959  .00001597  00000+0  12462-3 0  9999
2 21422  82.4960 350.1855 0013833  91.7732 268.5077 15.00431323877724
SL-14 R/B               
1 21423U 91042B   26165.38450958  .00000330  00000+0  38685-4 0  9999
2 21423  82.4926 129.5238 0015482 285.0312  74.9189 14.81900908867397
ERS-1                   
1 21574U 91050A   26165.52352552  .00000321  00000+0  11718-3 0  9999
2 21574  98.7797 186.1564 0030710 275.2266  84.5416 14.39516531829667
ARIANE 40 R/B           
1 21610U 91050F   26165.55268748  .00000247  00000+0  86187-4 0  9996
2 21610  98.1877 214.0721 0004154 126.9411 233.2161 14.42955622832963
INTERCOSMOS 25          
1 21819U 91086A   26165.47066083  .00000594  00000+0  11849-3 0  9992
2 21819  82.6052 251.4538 1484112 268.2589  74.8557 12.12192313508414
SL-8 R/B                
1 21876U 92008B   26165.59117148  .00000139  00000+0  12778-3 0  9999
2 21876  82.9264 195.7178 0033671 222.1354 250.5341 13.75976238722747
SL-8 R/B                
1 21938U 92020B   26165.53070742  .00000053  00000+0  38908-4 0  9993
2 21938  82.9306  81.8304 0029894  29.8317 142.7422 13.75548536714448
USA 81                  
1 21949U 92023A   26165.48059941  .00000148  00000+0  47333-4 0  9997
2 21949  85.0076  75.5695 0002770  87.0583 273.0927 14.32397510108641
COSMOS 2219             
1 22219U 92076A   26165.43185403  .00000206  00000+0  13249-3 0  9997
2 22219  71.0577 175.8320 0016470  48.6580 311.5956 14.14097365732057
SL-16 R/B               
1 22220U 92076B   26165.55808870  .00000054  00000+0  51017-4 0  9999
2 22220  71.0004 344.3197 0014608 302.1377 114.7033 14.16871345735559
COSMOS 2221             
1 22236U 92080A   26165.53135373  .00001271  00000+0  10944-3 0  9995
2 22236  82.5030 186.3091 0013074 221.7849 138.2376 14.96527144795274
SL-16 R/B               
1 22285U 92093B   26165.41566180 -.00000297  00000+0 -12755-3 0  9995
2 22285  71.0199 161.2098 0004119 193.0991 167.0025 14.15462539726840
COSMOS 2228             
1 22286U 92094A   26165.61549554  .00001869  00000+0  15745-3 0  9991
2 22286  82.5174 144.5061 0017133 341.3154  18.7438 14.97578143790563
SL-16 R/B               
1 22566U 93016B   26165.32477946  .00000332  00000+0  19472-3 0  9995
2 22566  71.0083  12.2197 0010411 187.4886 172.6083 14.15312430715849
COSMOS 2242             
1 22626U 93024A   26165.57376729  .00001539  00000+0  13159-3 0  9991
2 22626  82.5180 174.0432 0015596 345.4540  14.6231 14.96896361794882
SL-16 R/B               
1 22803U 93059B   26165.45496055  .00000128  00000+0  87044-4 0  9996
2 22803  70.9887 167.0655 0015137  58.6811 301.5792 14.17247836693246
ARIANE 40 R/B           
1 22830U 93061H   26165.41226967  .00000163  00000+0  75493-4 0  9992
2 22830  98.4819 232.3269 0010641   4.6746 355.4535 14.32906827707952
COSMOS 2278             
1 23087U 94023A   26165.55945246  .00000189  00000+0  12324-3 0  9990
2 23087  71.0548 332.4230 0010599 246.2735 113.7276 14.14397237658509
SL-16 R/B               
1 23088U 94023B   26165.56238994  .00000329  00000+0  19458-3 0  9998
2 23088  70.9994 227.4437 0002940 188.6742 171.4330 14.15023586659791
SL-16 R/B               
1 23343U 94074B   26165.58748030  .00000364  00000+0  55283-4 0  9993
2 23343  97.6992 192.4168 0005077 264.6447 210.6188 14.79500373701577
